EUTELSAT 21B            
1 38992U 12062B   25312.82104182  .00000131  00000+0  00000+0 0  9994
2 38992   0.0704 355.6610 0003065 242.0214 127.7610  1.00270119 47612
EUTELSAT 70B            
1 39020U 12069A   25312.85817829 -.00000043  00000+0  00000+0 0  9999
2 39020   0.0688  14.2029 0004346 210.8219 202.7335  1.00272201 47307
EUTELSAT 117 WEST A     
1 39122U 13012A   25312.65091419 -.00000012  00000+0  00000+0 0  9994
2 39122   0.0401  63.6243 0003159 169.3856 292.6288  1.00270222 46221
EUTELSAT 7B             
1 39163U 13022A   25312.81809513  .00000049  00000+0  00000+0 0  9999
2 39163   0.0753  17.0009 0003235 288.0633  44.7048  1.00270745 45742
EXPRESS-AT1             
1 39612U 14010A   25311.68994168  .00000083  00000+0  00000+0 0  9999
2 39612   0.0157 271.2836 0000168 224.8681 215.3861  1.00270877 42599
EXPRESS-AT2             
1 39613U 14010B   25312.00392109 -.00000277  00000+0  00000+0 0  9990
2 39613   0.0162 273.5180 0002110   5.0340 270.1803  1.00269974 42280
EUTELSAT 3B             
1 39773U 14030A   25312.81731513  .00000021  00000+0  00000+0 0  9990
2 39773   0.0845  39.0867 0004710 182.9735 123.5201  1.00272298 41851
EUTELSAT 115 WEST B     
1 40425U 15010B   25312.65126088 -.00000024  00000+0  00000+0 0  9996
2 40425   0.0103 140.6483 0000482 289.1363  97.8911  1.00270280 39189
